OBJECT_NAME,OBJECT_ID,EPOCH,MEAN_MOTION,ECCENTRICITY,INCLINATION,RA_OF_ASC_NODE,ARG_OF_PERICENTER,MEAN_ANOMALY,EPHEMERIS_TYPE,CLASSIFICATION_TYPE,NORAD_CAT_ID,ELEMENT_SET_NO,REV_AT_EPOCH,BSTAR,MEAN_MOTION_DOT,MEAN_MOTION_DDOT
INTELSAT 23 (IS-23),2012-057A,2026-07-04T08:30:13.601376,1.00266390,.0000499,0.0158,22.2071,191.2104,143.4564,0,U,38867,999,5012,0,-.273E-5,0
FM-6,2013-058A,2026-07-02T16:51:02.864736,1.00271889,.00019604,0.0160,40.7600,138.6453,237.7772,0,U,39360,999,4622,0,-.5E-7,0
INTELSAT 30 (IS-30),2014-062A,2026-07-05T05:09:09.031968,1.00276491,.00016952,0.0182,48.3724,343.0020,234.0864,0,U,40271,999,697,0,-.138E-5,0
DIRECTV 14,2014-078B,2026-07-02T10:05:17.774304,1.00271936,.0000293,0.0102,26.2148,2.4668,303.8682,0,U,40333,999,4219,0,-.115E-5,0
DIRECTV 15,2015-026A,2026-07-04T23:39:55.061280,1.00274623,.00003004,0.0181,69.4379,276.8843,188.7729,0,U,40663,999,4064,0,-.9E-6,0
SKY MEXICO-1,2015-026B,2026-07-05T05:50:55.551264,1.00272341,.00024614,0.0166,66.3093,56.1171,169.7573,0,U,40664,999,4063,0,-.221E-5,0
INTELSAT 34 (IS-34),2015-039A,2026-07-05T05:01:20.087328,1.00271717,.0000293,0.0093,349.4006,41.4792,272.1706,0,U,40874,999,3981,0,-.272E-5,0
INTELSAT 31 (IS-31),2016-035A,2026-07-05T03:07:25.467168,1.00273064,.00009441,0.0394,205.6145,64.2305,325.0988,0,U,41581,999,3686,0,-.138E-5,0
INTELSAT 36 (IS-36),2016-053A,2026-07-05T03:53:47.650848,1.00270251,.00022151,0.0097,10.0275,335.4655,64.6192,0,U,41747,999,3613,0,-.11E-6,0
INTELSAT 32E (IS-32E),2017-007B,2026-07-05T04:06:32.580288,1.00276571,.00008407,0.0170,17.7536,346.9082,296.9814,0,U,41945,999,3440,0,0,0
INTELSAT 35E (IS-35E),2017-041A,2026-07-05T04:26:47.021280,1.00273037,.00018962,0.0192,36.9619,63.7045,214.7243,0,U,42818,999,3299,0,-.225E-5,0
INTELSAT 37E (IS-37E),2017-059A,2026-07-05T04:18:38.494944,1.00272520,.00027429,0.0176,48.3848,56.6458,224.8165,0,U,42950,999,3224,0,-.127E-5,0
AZERSPACE 2 (IS-38),2018-074A,2026-07-05T03:47:25.761120,1.00268819,.00014213,0.0178,343.1906,115.7245,286.2194,0,U,43632,999,2862,0,.15E-5,0
HORIZONS-3E,2018-074B,2026-07-04T21:32:08.183616,1.00268688,.00007513,0.0397,223.4726,76.0728,115.4029,0,U,43633,999,2851,0,-.18E-6,0
AT&T T-16,2019-034A,2026-07-05T04:48:27.062208,1.00270256,.00004403,0.0143,57.8212,271.1422,285.4985,0,U,44333,999,2581,0,-.102E-5,0
INTELSAT 39 (IS-39),2019-049B,2026-07-02T20:52:37.700256,1.00268633,.00005929,0.0212,29.7717,309.6573,316.5859,0,U,44476,999,2528,0,0,0
GALAXY 30 (G-30),2020-056C,2026-07-05T04:41:30.386976,1.00273180,.00019858,0.0186,41.1043,65.4754,122.0039,0,U,46114,999,2147,0,.5E-6,0
GALAXY 33 (G-33),2022-128A,2026-07-05T04:39:15.602976,1.00271496,.00019404,0.0182,57.4493,42.6910,119.8684,0,U,54026,999,1392,0,.92E-6,0
GALAXY 34 (G-34),2022-128B,2026-07-02T20:24:26.441856,1.00268570,.00019557,0.0130,31.8533,68.7137,357.4298,0,U,54027,999,1407,0,.7E-6,0
GALAXY 31 (G-31),2022-153A,2026-07-05T04:42:37.779840,1.00272376,.00014241,0.0221,92.0355,12.7134,128.1013,0,U,54243,999,731,0,.26E-6,0
GALAXY 32 (G-32),2022-153B,2026-07-04T23:43:17.238144,1.00272054,.00018132,0.0095,351.1203,56.4825,140.2192,0,U,54244,999,1332,0,-.161E-5,0
GALAXY 35 (G-35),2022-170A,2026-07-05T04:50:34.358784,1.00272235,.00021743,0.0169,86.0659,19.4715,157.2060,0,U,54741,999,1307,0,-.149E-5,0
GALAXY 36 (G-36),2022-170B,2026-07-05T03:09:10.298880,1.00271654,.00027573,0.0180,120.7890,335.3383,145.3013,0,U,54742,999,1295,0,-.172E-5,0
GALAXY 37 (G-37),2023-112A,2026-07-05T04:41:00.434688,1.00270558,.00018769,0.0208,32.4029,81.2155,112.8289,0,U,57493,999,1072,0,0,0
